MEAN_MOTION;ECCENTRICITY;INCLINATION;RA_OF_ASC_NODE;ARG_OF_PERICENTER;MEAN_ANOMALY;BSTAR;MEAN_MOTION_DOT;MEAN_MOTION_DDOT;TYPE
14.22187325;0.0003553;98.411;77.3918;91.2323;268.9263;3.1638E-5;2.9E-7;0;Weather
14.22187335;0.0003552;98.4111;77.4589;91.0898;269.0688;3.1305E-5;2.8E-7;0;Weather
14.22187425;0.0003554;98.4111;77.996;89.9305;270.2281;3.3183E-5;3.2E-7;0;Weather
14.22187475;0.0003552;98.4111;78.3316;89.2213;270.9372;3.4476E-5;3.5E-7;0;Weather
14.22187495;0.0003551;98.4111;78.3988;89.0437;271.1148;3.4816E-5;3.6E-7;0;Weather
14.22187508;0.000355;98.4111;78.4659;88.8812;271.2773;3.4829E-5;3.6E-7;0;Weather
14.22187584;0.0003552;98.4111;78.9358;87.9808;272.1777;3.5477E-5;3.7E-7;0;Weather
14.22187624;0.0003552;98.4111;79.2714;87.446;272.7125;3.5349E-5;3.7E-7;0;Weather
14.2218764;0.0003551;98.4111;79.3386;87.3069;272.8516;3.5265E-5;3.7E-7;0;Weather
14.22187654;0.000355;98.4111;79.4057;87.1435;273.015;3.517E-5;3.7E-7;0;Weather
14.22187761;0.0003556;98.4112;79.8757;86.2727;273.8858;3.6369E-5;3.9E-7;0;Weather
14.22187804;0.0003556;98.4112;80.2785;85.4843;274.6741;3.3948E-5;3.4E-7;0;Weather
14.22187813;0.0003558;98.4112;80.3456;85.4;274.7585;3.3274E-5;3.2E-7;0;Weather
14.22187888;0.000356;98.4112;80.8155;84.5167;275.6417;3.1614E-5;2.9E-7;0;Weather
14.22188038;0.0003561;98.4113;81.7554;82.7723;277.386;2.9537E-5;2.4E-7;0;Weather
14.22188035;0.0003559;98.4113;82.0239;82.348;277.8102;2.7875E-5;2.0E-7;0;Weather
14.22188068;0.0003559;98.4113;82.2252;81.9757;278.1825;2.7025E-5;1.9E-7;0;Weather
14.22188074;0.0003567;98.4113;82.4266;81.7133;278.445;2.5518E-5;1.5E-7;0;Weather
14.22188074;0.0003546;98.4113;82.8966;80.301;279.8569;2.3475E-5;1.1E-7;0;Weather
14.2218808;0.0003534;98.4114;83.0308;79.851;280.3067;2.2926E-5;1.0E-7;0;Weather
14.22188103;0.0003533;98.4114;83.1651;79.6263;280.5314;2.2547E-5;9.0E-8;0;Weather
14.22188146;0.0003536;98.4114;83.3665;79.3408;280.8168;2.3917E-5;1.2E-7;0;Weather
14.22188186;0.0003534;98.4114;83.7022;78.7465;281.411;2.2973E-5;1.0E-7;0;Weather
14.22188222;0.0003522;98.4114;84.0378;77.9676;282.1897;2.3155E-5;1.0E-7;0;Weather
14.22188235;0.0003521;98.4114;84.1049;77.8313;282.326;2.2936E-5;1.0E-7;0;Weather
14.22188272;0.000352;98.4115;84.3063;77.4471;282.7101;2.4022E-5;1.2E-7;0;Weather
14.22188316;0.0003508;98.4115;84.9777;76.0738;284.0831;2.0999E-5;5.0E-8;0;Weather
14.22188325;0.0003506;98.4115;85.0448;75.9799;284.1769;2.0659E-5;4.0E-8;0;Weather
14.22188356;0.0003503;98.4115;85.2463;75.5897;284.567;2.1099E-5;5.0E-8;0;Weather
14.22188399;0.0003499;98.4116;85.6491;74.7988;285.3577;2.0314E-5;4.0E-8;0;Weather
14.22188417;0.0003495;98.4116;85.9176;74.1566;285.9997;2.0649E-5;4.0E-8;0;Weather
14.22188453;0.0003491;98.4116;86.2533;73.4608;286.6954;2.0881E-5;5.0E-8;0;Weather
14.2218849;0.0003484;98.4116;86.589;72.7606;287.3953;2.19E-5;7.0E-8;0;Weather
14.22188505;0.0003477;98.4116;86.9246;72.0293;288.1264;2.1914E-5;7.0E-8;0;Weather
14.22188515;0.0003475;98.4116;86.9918;71.8886;288.2671;2.1955E-5;7.0E-8;0;Weather
14.22188518;0.0003473;98.4116;87.1932;71.5015;288.654;2.0998E-5;5.0E-8;0;Weather
14.22188543;0.0003467;98.4116;87.5289;70.7358;289.4196;2.1299E-5;6.0E-8;0;Weather
14.22188579;0.0003457;98.4116;87.8645;70.0497;290.1053;2.3743E-5;1.1E-7;0;Weather
14.22188597;0.0003457;98.4116;87.9317;69.8682;290.2869;2.4077E-5;1.2E-7;0;Weather
14.22188639;0.0003453;98.4116;88.2002;69.3277;290.8272;2.6055E-5;1.6E-7;0;Weather
14.22188689;0.0003447;98.4117;88.4688;68.7436;291.4111;2.6912E-5;1.8E-7;0;Weather
14.22188679;0.0003446;98.4117;88.5359;68.594;291.5606;2.5689E-5;1.6E-7;0;Weather
14.22188717;0.0003438;98.4116;88.8045;68.0622;292.0921;2.7705E-5;2.0E-7;0;Weather
14.22188738;0.0003435;98.4116;88.8716;67.8854;292.2689;2.8379E-5;2.2E-7;0;Weather
14.22188788;0.0003431;98.4117;89.1401;67.3526;292.8015;3.0828E-5;2.7E-7;0;Weather
14.22188825;0.0003426;98.4117;89.3415;66.9262;293.2278;3.077E-5;2.7E-7;0;Weather
14.22188822;0.0003424;98.4117;89.4758;66.6131;293.5407;2.9137E-5;2.3E-7;0;Weather
14.22188845;0.0003417;98.4116;89.6772;66.2342;293.9195;2.918E-5;2.3E-7;0;Weather
14.22188857;0.0003414;98.4116;89.7444;66.0847;294.0689;2.9343E-5;2.4E-7;0;Weather
14.22188871;0.0003412;98.4116;89.8115;65.9316;294.2219;2.9322E-5;2.4E-7;0;Weather
14.22188881;0.0003408;98.4117;90.08;65.3483;294.8051;2.7655E-5;2.0E-7;0;Weather
14.22188918;0.00034;98.4117;90.4157;64.724;295.4291;2.6578E-5;1.8E-7;0;Weather
14.22188911;0.0003397;98.4116;90.4828;64.5608;295.5922;2.5906E-5;1.6E-7;0;Weather
14.22188926;0.0003387;98.4116;90.7514;64.0397;296.1131;2.4477E-5;1.3E-7;0;Weather
14.22188983;0.000337;98.4116;91.3556;62.9228;297.2294;2.3986E-5;1.2E-7;0;Weather
14.22188988;0.0003358;98.4116;91.6913;62.1753;297.9766;2.2973E-5;1.0E-7;0;Weather
14.22188996;0.0003355;98.4116;91.7584;62.0726;298.0792;2.2613E-5;9.0E-8;0;Weather
14.22189039;0.0003351;98.4116;91.9598;61.6609;298.4908;2.5378E-5;1.5E-7;0;Weather
14.22189165;0.0003342;98.4116;92.2955;61.0401;299.1112;3.1474E-5;2.8E-7;0;Weather
14.22189207;0.0003331;98.4116;92.6312;60.2022;299.9488;3.2283E-5;3.0E-7;0;Weather
14.22189227;0.0003328;98.4116;92.6983;60.0821;300.0688;3.2583E-5;3.1E-7;0;Weather
14.22189261;0.0003322;98.4116;92.8998;59.7374;300.4133;3.2946E-5;3.2E-7;0;Weather
14.22189324;0.0003312;98.4116;93.2354;59.0193;301.1311;3.3009E-5;3.2E-7;0;Weather
14.2218938;0.0003301;98.4116;93.5712;58.3143;301.8357;3.4308E-5;3.5E-7;0;Weather
14.22189396;0.0003298;98.4116;93.6383;58.1852;301.9648;3.4018E-5;3.4E-7;0;Weather
14.22189424;0.0003291;98.4116;93.9068;57.6249;302.5248;3.2327E-5;3.0E-7;0;Weather
14.22189482;0.0003283;98.4116;94.1754;57.0282;303.1212;3.2305E-5;3.0E-7;0;Weather
14.22189512;0.0003268;98.4116;94.5111;56.3098;303.8392;3.1235E-5;2.8E-7;0;Weather
14.2218953;0.0003266;98.4116;94.5782;56.1489;304;3.1371E-5;2.8E-7;0;Weather
14.22189567;0.0003257;98.4116;94.8468;55.6197;304.529;3.0786E-5;2.7E-7;0;Weather
14.22189601;0.0003243;98.4117;95.1825;54.9368;305.2114;2.8013E-5;2.1E-7;0;Weather
14.22189609;0.0003232;98.4117;95.5182;54.1576;305.9903;2.5579E-5;1.5E-7;0;Weather
14.22189613;0.0003229;98.4117;95.5853;54.0306;306.1171;2.4427E-5;1.3E-7;0;Weather
14.22189638;0.0003223;98.4117;95.7867;53.6072;306.5403;2.4997E-5;1.4E-7;0;Weather
14.22189678;0.0003213;98.4117;96.0553;53.028;307.1192;2.5231E-5;1.5E-7;0;Weather
14.22189676;0.0003203;98.4117;96.3238;52.3875;307.7594;2.4344E-5;1.3E-7;0;Weather
14.22189711;0.0003196;98.4117;96.4581;52.0988;308.0479;2.5145E-5;1.4E-7;0;Weather
14.22189714;0.0003193;98.4117;96.5252;51.9341;308.2126;2.3836E-5;1.2E-7;0;Weather
14.22189741;0.0003186;98.4118;96.7267;51.5565;308.5899;2.4559E-5;1.3E-7;0;Weather
14.22189793;0.0003173;98.4118;97.0624;50.9212;309.2249;2.409E-5;1.2E-7;0;Weather
14.22189798;0.0003172;98.4118;97.1295;50.6933;309.4527;2.4503E-5;1.3E-7;0;Weather
14.22189825;0.0003158;98.4118;97.3981;50.152;309.9936;2.4114E-5;1.2E-7;0;Weather
14.22189842;0.0003154;98.4118;97.4652;50.0136;310.1319;2.3886E-5;1.2E-7;0;Weather
14.22189865;0.0003146;98.4118;97.6666;49.6205;310.5248;2.3632E-5;1.1E-7;0;Weather
14.22189923;0.0003134;98.4119;98.0023;48.8974;311.2475;2.3677E-5;1.1E-7;0;Weather
14.22189928;0.0003131;98.4119;98.0695;48.7541;311.3906;2.3903E-5;1.2E-7;0;Weather
14.2218995;0.0003116;98.4119;98.338;48.2025;311.942;2.3303E-5;1.0E-7;0;Weather
14.22189967;0.0003113;98.4119;98.4051;48.0434;312.101;2.3473E-5;1.1E-7;0;Weather
14.22189979;0.000311;98.4119;98.4723;47.9003;312.2439;2.3298E-5;1.0E-7;0;Weather
14.2219005;0.0003078;98.4119;99.278;46.0544;314.0888;2.1718E-5;7.0E-8;0;Weather
14.22190064;0.0003074;98.4119;99.3451;45.8997;314.2434;2.1805E-5;7.0E-8;0;Weather
14.22190065;0.000307;98.4119;99.4123;45.7951;314.3479;2.079E-5;5.0E-8;0;Weather
14.22190148;0.000304;98.412;99.9494;44.999;315.1434;2.1699E-5;7.0E-8;0;Weather
14.22190156;0.0003019;98.412;100.2851;44.36;315.782;2.0296E-5;4.0E-8;0;Weather
14.22190173;0.0003015;98.412;100.3522;44.1929;315.949;2.084E-5;5.0E-8;0;Weather
14.22190203;0.0003019;98.412;100.4194;43.7527;316.3891;2.3257E-5;1.0E-7;0;Weather
14.22190247;0.0002999;98.412;100.8222;42.9742;317.167;2.4107E-5;1.2E-7;0;Weather
14.22190316;0.0002981;98.412;101.2922;41.7098;318.4308;2.6567E-5;1.8E-7;0;Weather
14.22190336;0.0002979;98.412;101.3594;41.5025;318.638;2.7302E-5;1.9E-7;0;Weather
14.22190404;0.0002959;98.412;101.7622;40.7068;319.4332;2.8962E-5;2.3E-7;0;Weather
14.22190478;0.000294;98.412;102.165;39.7671;320.3723;3.1817E-5;2.9E-7;0;Weather
14.22190497;0.0002936;98.412;102.2322;39.6054;320.5339;3.2063E-5;3.0E-7;0;Weather
14.22190513;0.0002933;98.412;102.2993;39.4564;320.6828;3.2221E-5;3.0E-7;0;Weather
14.22190576;0.0002905;98.412;102.8365;38.3403;321.7982;3.207E-5;3.0E-7;0;Weather
14.22190598;0.0002893;98.412;103.105;37.5649;322.5731;3.1769E-5;2.9E-7;0;Weather
14.22190609;0.0002884;98.412;103.1722;37.5453;322.5926;3.1233E-5;2.8E-7;0;Weather
14.22190627;0.0002882;98.412;103.2393;37.3051;322.8327;3.155E-5;2.9E-7;0;Weather
14.22190721;0.0002844;98.412;103.7765;36.6564;323.4809;3.2575E-5;3.1E-7;0;Weather
14.22190746;0.0002831;98.412;104.045;35.9445;324.1923;3.2956E-5;3.2E-7;0;Weather
14.22190758;0.0002828;98.412;104.1122;35.7556;324.3812;3.2908E-5;3.2E-7;0;Weather
14.22190771;0.0002823;98.412;104.1793;35.6593;324.4773;3.279E-5;3.1E-7;0;Weather
14.22190841;0.0002798;98.412;104.7164;34.3672;325.7687;3.3555E-5;3.3E-7;0;Weather
14.22190866;0.0002776;98.4119;105.0521;33.5541;326.5813;3.3093E-5;3.2E-7;0;Weather
14.22190882;0.0002773;98.4119;105.1192;33.3788;326.7565;3.3257E-5;3.2E-7;0;Weather
14.22190907;0.0002778;98.4119;105.1864;32.9186;327.2166;3.4193E-5;3.4E-7;0;Weather
14.22190953;0.0002752;98.4119;105.6564;31.8974;328.237;3.3576E-5;3.3E-7;0;Weather
14.22190988;0.0002733;98.4118;105.9921;31.046;329.088;3.3536E-5;3.3E-7;0;Weather
14.22191005;0.0002729;98.4118;106.0592;30.8665;329.2674;3.3621E-5;3.3E-7;0;Weather
14.22191031;0.0002725;98.4118;106.1263;30.6939;329.4398;3.425E-5;3.5E-7;0;Weather
14.22191099;0.0002699;98.4119;106.5964;29.61;330.5231;3.3604E-5;3.3E-7;0;Weather
14.22191166;0.0002673;98.4119;106.9993;28.6002;331.5323;3.3817E-5;3.4E-7;0;Weather
